[{"OBJECT_NAME":"GAOFEN-9 03","OBJECT_ID":"2020-039A","EPOCH":"2026-03-09T21:55:15.121344","MEAN_MOTION":15.30529116,"ECCENTRICITY":0.0013094,"INCLINATION":97.5219,"RA_OF_ASC_NODE":201.2158,"ARG_OF_PERICENTER":77.4533,"MEAN_ANOMALY":282.8172,"EPHEMERIS_TYPE":0,"CLASSIFICATION_TYPE":"U","NORAD_CAT_ID":45794,"ELEMENT_SET_NO":999,"REV_AT_EPOCH":31856,"BSTAR":0.00039258132,"MEAN_MOTION_DOT":0.00011544,"MEAN_MOTION_DDOT":0},{"OBJECT_NAME":"STARLINK-31483","OBJECT_ID":"2024-064P","EPOCH":"2026-03-09T22:42:33.317280","MEAN_MOTION":15.27563004,"ECCENTRICITY":0.00013862,"INCLINATION":43.0055,"RA_OF_ASC_NODE":54.8401,"ARG_OF_PERICENTER":263.1784,"MEAN_ANOMALY":96.891,"EPHEMERIS_TYPE":0,"CLASSIFICATION_TYPE":"U","NORAD_CAT_ID":59411,"ELEMENT_SET_NO":999,"REV_AT_EPOCH":10926,"BSTAR":-9.6297293e-5,"MEAN_MOTION_DOT":-2.91e-5,"MEAN_MOTION_DDOT":0}]
